[{"OBJECT_NAME":"YAOGAN-30 08B","OBJECT_ID":"2020-076B","EPOCH":"2026-03-09T22:42:15.045408","MEAN_MOTION":15.02083021,"ECCENTRICITY":0.00018813,"INCLINATION":34.9955,"RA_OF_ASC_NODE":335.6171,"ARG_OF_PERICENTER":239.6156,"MEAN_ANOMALY":120.4366,"EPHEMERIS_TYPE":0,"CLASSIFICATION_TYPE":"U","NORAD_CAT_ID":46808,"ELEMENT_SET_NO":999,"REV_AT_EPOCH":29329,"BSTAR":0.00029214643,"MEAN_MOTION_DOT":3.888e-5,"MEAN_MOTION_DDOT":0},{"OBJECT_NAME":"STARLINK-30366","OBJECT_ID":"2023-131T","EPOCH":"2026-03-09T07:38:57.876288","MEAN_MOTION":15.02782844,"ECCENTRICITY":0.00016492,"INCLINATION":42.9994,"RA_OF_ASC_NODE":173.3496,"ARG_OF_PERICENTER":272.4475,"MEAN_ANOMALY":87.6179,"EPHEMERIS_TYPE":0,"CLASSIFICATION_TYPE":"U","NORAD_CAT_ID":57749,"ELEMENT_SET_NO":999,"REV_AT_EPOCH":13987,"BSTAR":0.00073504107,"MEAN_MOTION_DOT":9.804e-5,"MEAN_MOTION_DDOT":0}]
